CELESTIS-02             
1 25160U 98007D   08107.59590796 -.00000088  00000-0  18590-4 0  7301
2 25160 107.9969 305.4531 0063936 334.0811  25.7125 14.20805298527853
CELESTIS-03             
1 26034U 99070C   08107.87912272  .00000761  00000-0  10947-3 0  2142
2 26034  98.3592  95.9086 0017511 276.9413  82.9785 14.79417771447289
AMC-14                  
1 32708U 08011A   08106.20286530 -.00000132  00000-0  00000+0 0   279
2 32708  48.9795 163.5998 7085958   2.6795 359.8282  2.25661450   734
